{"type": "FeatureCollection", "features": [ {"type": "Feature", "properties": {"norad_id": 32384, "name": "GPS BIIRM-5 (PRN 29)", "group": "gps-ops", "lat": -54.456414711572585, "lon": 177.76146389828833, "alt_km": 20203.582598845656, "timestamp": "2025-12-27T21:25:02.771940+00:00", "meta": {"OBJECT_NAME": "GPS BIIRM-5 (PRN 29)", "OBJECT_ID": "2007-062A", "EPOCH": "2025-12-26T06:34:08.123232", "MEAN_MOTION": 2.00549336, "ECCENTRICITY": 0.0031409, "INCLINATION": 55.1705, "RA_OF_ASC_NODE": 281.103, "ARG_OF_PERICENTER": 162.2528, "MEAN_ANOMALY": 11.0381, "EPHEMERIS_TYPE": 0, "CLASSIFICATION_TYPE": "U", "NORAD_CAT_ID": 32384, "ELEMENT_SET_NO": 999, "REV_AT_EPOCH": 13204, "BSTAR": 0, "MEAN_MOTION_DOT": -2.8e-07, "MEAN_MOTION_DDOT": 0}, "tle": {"line1": "1 32384U 07062A   25360.27370513 -.00000028  00000+0  00000+0 0  9998", "line2": "2 32384  55.1705 281.1030 0031409 162.2528  11.0381  2.00549336132049"}}, "geometry": {"type": "Point", "coordinates": [177.76146389828833, -54.456414711572585]}}, {"type": "Feature", "properties": {"norad_id": 32711, "name": "GPS BIIRM-6 (PRN 07)", "group": "gps-ops", "lat": -3.8431090328160806, "lon": -20.490290708692296, "alt_km": 19908.7683269532, "timestamp": "2025-12-27T21:25:02.771952+00:00", "meta": {"OBJECT_NAME": "GPS BIIRM-6 (PRN 07)", "OBJECT_ID": "2008-012A", "EPOCH": "2025-12-26T15:12:37.851552", "MEAN_MOTION": 2.00566161, "ECCENTRICITY": 0.02030689, "INCLINATION": 54.4786, "RA_OF_ASC_NODE": 156.8183, "ARG_OF_PERICENTER": 245.1136, "MEAN_ANOMALY": 112.7544, "EPHEMERIS_TYPE": 0, "CLASSIFICATION_TYPE": "U", "NORAD_CAT_ID": 32711, "ELEMENT_SET_NO": 999, "REV_AT_EPOCH": 13029, "BSTAR": 0, "MEAN_MOTION_DOT": 1.07e-06, "MEAN_MOTION_DDOT": 0}, "tle": {"line1": "1 32711U 08012A   25360.63377143  .00000107  00000+0  00000+0 0  9991", "line2": "2 32711  54.4786 156.8183 0203068 245.1136 112.7544  2.00566161130299"}}, "geometry": {"type": "Point", "coordinates": [-20.490290708692296, -3.8431090328160806]}}, {"type": "Feature", "properties": {"norad_id": 35752, "name": "GPS BIIRM-8 (PRN 05)", "group": "gps-ops", "lat": -22.122284504921552, "lon": -129.9454572181634, "alt_km": 20263.85406084985, "timestamp": "2025-12-27T21:25:02.771964+00:00", "meta": {"OBJECT_NAME": "GPS BIIRM-8 (PRN 05)", "OBJECT_ID": "2009-043A", "EPOCH": "2025-12-26T02:26:22.079616", "MEAN_MOTION": 2.00564782, "ECCENTRICITY": 0.00515557, "INCLINATION": 56.1002, "RA_OF_ASC_NODE": 34.2563, "ARG_OF_PERICENTER": 81.6915, "MEAN_ANOMALY": 271.8027, "EPHEMERIS_TYPE": 0, "CLASSIFICATION_TYPE": "U", "NORAD_CAT_ID": 35752, "ELEMENT_SET_NO": 999, "REV_AT_EPOCH": 11988, "BSTAR": 0, "MEAN_MOTION_DOT": -5.1e-07, "MEAN_MOTION_DDOT": 0}, "tle": {"line1": "1 35752U 09043A   25360.10164444 -.00000051  00000+0  00000+0 0  9993", "line2": "2 35752  56.1002  34.2563 0051555  81.6915 271.8027  2.00564782119880"}}, "geometry": {"type": "Point", "coordinates": [-129.9454572181634, -22.122284504921552]}}, {"type": "Feature", "properties": {"norad_id": 36585, "name": "GPS BIIF-1  (PRN 25)", "group": "gps-ops", "lat": -29.326994926102252, "lon": -168.35113198428127, "alt_km": 20254.63031044398, "timestamp": "2025-12-27T21:25:02.771983+00:00", "meta": {"OBJECT_NAME": "GPS BIIF-1  (PRN 25)", "OBJECT_ID": "2010-022A", "EPOCH": "2025-12-27T03:27:39.235104", "MEAN_MOTION": 2.00553872, "ECCENTRICITY": 0.01266459, "INCLINATION": 54.298, "RA_OF_ASC_NODE": 215.4929, "ARG_OF_PERICENTER": 65.2561, "MEAN_ANOMALY": 78.9222, "EPHEMERIS_TYPE": 0, "CLASSIFICATION_TYPE": "U", "NORAD_CAT_ID": 36585, "ELEMENT_SET_NO": 999, "REV_AT_EPOCH": 11414, "BSTAR": 0, "MEAN_MOTION_DOT": 8.9e-07, "MEAN_MOTION_DDOT": 0}, "tle": {"line1": "1 36585U 10022A   25361.14420411  .00000089  00000+0  00000+0 0  9991", "line2": "2 36585  54.2980 215.4929 0126645  65.2561  78.9222  2.00553872114141"}}, "geometry": {"type": "Point", "coordinates": [-168.35113198428127, -29.326994926102252]}}, {"type": "Feature", "properties": {"norad_id": 38833, "name": "GPS BIIF-3  (PRN 24)", "group": "gps-ops", "lat": 45.49874645371676, "lon": -160.6562889527252, "alt_km": 19709.345178527237, "timestamp": "2025-12-27T21:25:02.771996+00:00", "meta": {"OBJECT_NAME": "GPS BIIF-3  (PRN 24)", "OBJECT_ID": "2012-053A", "EPOCH": "2025-12-26T07:30:08.502624", "MEAN_MOTION": 2.00565043, "ECCENTRICITY": 0.0176105, "INCLINATION": 53.56, "RA_OF_ASC_NODE": 150.6829, "ARG_OF_PERICENTER": 64.189, "MEAN_ANOMALY": 297.6002, "EPHEMERIS_TYPE": 0, "CLASSIFICATION_TYPE": "U", "NORAD_CAT_ID": 38833, "ELEMENT_SET_NO": 999, "REV_AT_EPOCH": 9597, "BSTAR": 0, "MEAN_MOTION_DOT": 9.8e-07, "MEAN_MOTION_DDOT": 0}, "tle": {"line1": "1 38833U 12053A   25360.31259841  .00000098  00000+0  00000+0 0  9990", "line2": "2 38833  53.5600 150.6829 0176105  64.1890 297.6002  2.00565043 95976"}}, "geometry": {"type": "Point", "coordinates": [-160.6562889527252, 45.49874645371676]}}, {"type": "Feature", "properties": {"norad_id": 39166, "name": "GPS BIIF-4  (PRN 27)", "group": "gps-ops", "lat": 15.011481397542381, "lon": 84.9841841001242, "alt_km": 20318.038865264094, "timestamp": "2025-12-27T21:25:02.772008+00:00", "meta": {"OBJECT_NAME": "GPS BIIF-4  (PRN 27)", "OBJECT_ID": "2013-023A", "EPOCH": "2025-12-26T04:14:33.249408", "MEAN_MOTION": 2.00564526, "ECCENTRICITY": 0.0138718, "INCLINATION": 54.6404, "RA_OF_ASC_NODE": 276.0219, "ARG_OF_PERICENTER": 48.7908, "MEAN_ANOMALY": 312.4421, "EPHEMERIS_TYPE": 0, "CLASSIFICATION_TYPE": "U", "NORAD_CAT_ID": 39166, "ELEMENT_SET_NO": 999, "REV_AT_EPOCH": 9241, "BSTAR": 0, "MEAN_MOTION_DOT": -2.2e-07, "MEAN_MOTION_DDOT": 0}, "tle": {"line1": "1 39166U 13023A   25360.17677372 -.00000022  00000+0  00000+0 0  9993", "line2": "2 39166  54.6404 276.0219 0138718  48.7908 312.4421  2.00564526 92414"}}, "geometry": {"type": "Point", "coordinates": [84.9841841001242, 15.011481397542381]}}, {"type": "Feature", "properties": {"norad_id": 39533, "name": "GPS BIIF-5  (PRN 30)", "group": "gps-ops", "lat": 14.93348058823297, "lon": -35.04081458025396, "alt_km": 20090.221743325674, "timestamp": "2025-12-27T21:25:02.772020+00:00", "meta": {"OBJECT_NAME": "GPS BIIF-5  (PRN 30)", "OBJECT_ID": "2014-008A", "EPOCH": "2025-12-23T16:16:25.020768", "MEAN_MOTION": 2.00548852, "ECCENTRICITY": 0.00795532, "INCLINATION": 53.5993, "RA_OF_ASC_NODE": 156.4877, "ARG_OF_PERICENTER": 225.9161, "MEAN_ANOMALY": 133.4108, "EPHEMERIS_TYPE": 0, "CLASSIFICATION_TYPE": "U", "NORAD_CAT_ID": 39533, "ELEMENT_SET_NO": 999, "REV_AT_EPOCH": 8616, "BSTAR": 0, "MEAN_MOTION_DOT": 8.2e-07, "MEAN_MOTION_DDOT": 0}, "tle": {"line1": "1 39533U 14008A   25357.67806737  .00000082  00000+0  00000+0 0  9990", "line2": "2 39533  53.5993 156.4877 0079553 225.9161 133.4108  2.00548852 86167"}}, "geometry": {"type": "Point", "coordinates": [-35.04081458025396, 14.93348058823297]}}, {"type": "Feature", "properties": {"norad_id": 39741, "name": "GPS BIIF-6  (PRN 06)", "group": "gps-ops", "lat": -33.96275742613007, "lon": -48.22568991486576, "alt_km": 20081.71584848687, "timestamp": "2025-12-27T21:25:02.772046+00:00", "meta": {"OBJECT_NAME": "GPS BIIF-6  (PRN 06)", "OBJECT_ID": "2014-026A", "EPOCH": "2025-12-26T22:52:18.642720", "MEAN_MOTION": 2.00560233, "ECCENTRICITY": 0.0039524, "INCLINATION": 56.578, "RA_OF_ASC_NODE": 338.2238, "ARG_OF_PERICENTER": 319.4951, "MEAN_ANOMALY": 40.2191, "EPHEMERIS_TYPE": 0, "CLASSIFICATION_TYPE": "U", "NORAD_CAT_ID": 39741, "ELEMENT_SET_NO": 999, "REV_AT_EPOCH": 8508, "BSTAR": 0, "MEAN_MOTION_DOT": -5.7e-07, "MEAN_MOTION_DDOT": 0}, "tle": {"line1": "1 39741U 14026A   25360.95299355 -.00000057  00000+0  00000+0 0  9991", "line2": "2 39741  56.5780 338.2238 0039524 319.4951  40.2191  2.00560233 85080"}}, "geometry": {"type": "Point", "coordinates": [-48.22568991486576, -33.96275742613007]}}, {"type": "Feature", "properties": {"norad_id": 40105, "name": "GPS BIIF-7  (PRN 09)", "group": "gps-ops", "lat": -53.010507365355565, "lon": -17.663596855496483, "alt_km": 20249.012577195517, "timestamp": "2025-12-27T21:25:02.772060+00:00", "meta": {"OBJECT_NAME": "GPS BIIF-7  (PRN 09)", "OBJECT_ID": "2014-045A", "EPOCH": "2025-12-23T13:11:32.096256", "MEAN_MOTION": 2.00573211, "ECCENTRICITY": 0.00324114, "INCLINATION": 55.2352, "RA_OF_ASC_NODE": 95.4677, "ARG_OF_PERICENTER": 120.1575, "MEAN_ANOMALY": 240.1743, "EPHEMERIS_TYPE": 0, "CLASSIFICATION_TYPE": "U", "NORAD_CAT_ID": 40105, "ELEMENT_SET_NO": 999, "REV_AT_EPOCH": 8255, "BSTAR": 0, "MEAN_MOTION_DOT": 8e-08, "MEAN_MOTION_DDOT": 0}, "tle": {"line1": "1 40105U 14045A   25357.54967704  .00000008  00000+0  00000+0 0  9994", "line2": "2 40105  55.2352  95.4677 0032411 120.1575 240.1743  2.00573211 82556"}}, "geometry": {"type": "Point", "coordinates": [-17.663596855496483, -53.010507365355565]}}, {"type": "Feature", "properties": {"norad_id": 40294, "name": "GPS BIIF-8  (PRN 03)", "group": "gps-ops", "lat": -13.793457433980098, "lon": 28.352628492957635, "alt_km": 20170.237689551508, "timestamp": "2025-12-27T21:25:02.772073+00:00", "meta": {"OBJECT_NAME": "GPS BIIF-8  (PRN 03)", "OBJECT_ID": "2014-068A", "EPOCH": "2025-12-26T10:04:05.409984", "MEAN_MOTION": 2.00565591, "ECCENTRICITY": 0.0060863, "INCLINATION": 56.8679, "RA_OF_ASC_NODE": 37.6169, "ARG_OF_PERICENTER": 68.8991, "MEAN_ANOMALY": 291.813, "EPHEMERIS_TYPE": 0, "CLASSIFICATION_TYPE": "U", "NORAD_CAT_ID": 40294, "ELEMENT_SET_NO": 999, "REV_AT_EPOCH": 8174, "BSTAR": 0, "MEAN_MOTION_DOT": -4.9e-07, "MEAN_MOTION_DDOT": 0}, "tle": {"line1": "1 40294U 14068A   25360.41950706 -.00000049  00000+0  00000+0 0  9998", "line2": "2 40294  56.8679  37.6169 0060863  68.8991 291.8130  2.00565591 81745"}}, "geometry": {"type": "Point", "coordinates": [28.352628492957635, -13.793457433980098]}}]}